0 SL-8 R/B
1 13242U 82051B   13282.52061597  .00000195  00000-0  76870-4 0  2450
2 13242 074.0431 302.6519 0023864 115.3517 045.4826 14.35372051640353
0 SL-8 R/B
1 13242U 82051B   13283.63154212  .00000187  00000-0  73954-4 0  2462
2 13242 074.0430 300.6154 0023859 112.9218 026.1346 14.35372692640512
0 SL-8 R/B
1 13242U 82051B   13286.49335473  .00000155  00000-0  62757-4 0  2485
2 13242 074.0427 295.3687 0023864 106.7743 054.3002 14.35373392640924
0 SL-8 R/B
1 13242U 82051B   13287.52816645  .00000148  00000-0  60295-4 0  2493
2 13242 074.0428 293.4716 0023851 104.4257 001.7255 14.35374125641076
0 SL-8 R/B
1 13242U 82051B   13288.57986714  .00000232  00000-0  89729-4 0  2503
2 13242 074.0429 291.5434 0023852 102.1334 036.3364 14.35375172641220
0 SL-8 R/B
1 13242U 82051B   13289.62152758  .00000261  00000-0  99820-4 0  2519
2 13242 074.0431 289.6336 0023845 099.8392 019.0920 14.35375922641375
0 SL-8 R/B
1 13242U 82051B   13291.14491918  .00000259  00000-0  99065-4 0  2522
2 13242 074.0433 286.8407 0023859 096.4693 331.1998 14.35376725641596
0 SL-8 R/B
1 13242U 82051B   13292.48576869  .00000277  00000-0  10527-3 0  2535
2 13242 074.0435 284.3825 0023867 093.5652 059.9649 14.35377261641782
0 SL-8 R/B
1 13242U 82051B   13293.52742818  .00000338  00000-0  12657-3 0  2545
2 13242 074.0435 282.4728 0023864 091.3092 042.6864 14.35377557641937
0 SL-8 R/B
1 13242U 82051B   13294.57387758  .00000322  00000-0  12099-3 0  2553
2 13242 074.0435 280.5545 0023862 089.0743 050.1276 14.35378435642082
0 SL-8 R/B
1 13242U 82051B   13296.09303251  .00000325  00000-0  12187-3 0  2560
2 13242 074.0436 277.7696 0023883 085.7962 340.2725 14.35379744642308
